CCSDS_OMM_VERS = 2.0
CREATION_DATE  = 
ORIGINATOR     = 

OBJECT_NAME    = IDEFIX & ARIANE 42P R/B
OBJECT_ID      = 2002-021B
CENTER_NAME    = EARTH
REF_FRAME      = TEME
TIME_SYSTEM    = UTC
MEAN_ELEMENT_THEORY = SGP/SGP4

EPOCH          = 2025-12-27T08:05:21.861312
MEAN_MOTION    = 14.30961030
ECCENTRICITY   = .0012692
INCLINATION    = 98.5804
RA_OF_ASC_NODE = 295.8397
ARG_OF_PERICENTER = 44.2047
MEAN_ANOMALY   = 316.0147

EPHEMERIS_TYPE = 0
CLASSIFICATION_TYPE = U
NORAD_CAT_ID   = 27422
ELEMENT_SET_NO = 999
REV_AT_EPOCH   = 23367
BSTAR          = .15833E-3
MEAN_MOTION_DOT = .373E-5
MEAN_MOTION_DDOT = 0

CCSDS_OMM_VERS = 2.0
CREATION_DATE  = 
ORIGINATOR     = 

OBJECT_NAME    = AQUA
OBJECT_ID      = 2002-022A
CENTER_NAME    = EARTH
REF_FRAME      = TEME
TIME_SYSTEM    = UTC
MEAN_ELEMENT_THEORY = SGP/SGP4

EPOCH          = 2025-12-26T23:47:53.598912
MEAN_MOTION    = 14.61764548
ECCENTRICITY   = .00018494
INCLINATION    = 98.4058
RA_OF_ASC_NODE = 322.1038
ARG_OF_PERICENTER = 99.7002
MEAN_ANOMALY   = 302.1298

EPHEMERIS_TYPE = 0
CLASSIFICATION_TYPE = U
NORAD_CAT_ID   = 27424
ELEMENT_SET_NO = 999
REV_AT_EPOCH   = 25811
BSTAR          = .27355086E-3
MEAN_MOTION_DOT = .1315E-4
MEAN_MOTION_DDOT = 0

CCSDS_OMM_VERS = 2.0
CREATION_DATE  = 
ORIGINATOR     = 

OBJECT_NAME    = CZ-4B R/B
OBJECT_ID      = 2002-024C
CENTER_NAME    = EARTH
REF_FRAME      = TEME
TIME_SYSTEM    = UTC
MEAN_ELEMENT_THEORY = SGP/SGP4

EPOCH          = 2025-12-27T10:03:30.762720
MEAN_MOTION    = 14.14530846
ECCENTRICITY   = .0049451
INCLINATION    = 98.8979
RA_OF_ASC_NODE = 50.1382
ARG_OF_PERICENTER = 227.4591
MEAN_ANOMALY   = 143.0693

EPHEMERIS_TYPE = 0
CLASSIFICATION_TYPE = U
NORAD_CAT_ID   = 27432
ELEMENT_SET_NO = 999
REV_AT_EPOCH   = 21902
BSTAR          = .46897E-4
MEAN_MOTION_DOT = .46E-6
MEAN_MOTION_DDOT = 0

CCSDS_OMM_VERS = 2.0
CREATION_DATE  = 
ORIGINATOR     = 

OBJECT_NAME    = CZ-4B R/B
OBJECT_ID      = 2003-049C
CENTER_NAME    = EARTH
REF_FRAME      = TEME
TIME_SYSTEM    = UTC
MEAN_ELEMENT_THEORY = SGP/SGP4

EPOCH          = 2025-12-27T10:48:45.555264
MEAN_MOTION    = 14.54923735
ECCENTRICITY   = .0049404
INCLINATION    = 98.6800
RA_OF_ASC_NODE = 348.5709
ARG_OF_PERICENTER = 92.0854
MEAN_ANOMALY   = 268.6001

EPHEMERIS_TYPE = 0
CLASSIFICATION_TYPE = U
NORAD_CAT_ID   = 28059
ELEMENT_SET_NO = 999
REV_AT_EPOCH   = 17609
BSTAR          = .13032E-3
MEAN_MOTION_DOT = .518E-5
MEAN_MOTION_DDOT = 0

CCSDS_OMM_VERS = 2.0
CREATION_DATE  = 
ORIGINATOR     = 

OBJECT_NAME    = CZ-2C R/B
OBJECT_ID      = 2004-012C
CENTER_NAME    = EARTH
REF_FRAME      = TEME
TIME_SYSTEM    = UTC
MEAN_ELEMENT_THEORY = SGP/SGP4

EPOCH          = 2025-12-27T01:55:20.318592
MEAN_MOTION    = 15.56602786
ECCENTRICITY   = .00166701
INCLINATION    = 97.7395
RA_OF_ASC_NODE = 54.8950
ARG_OF_PERICENTER = 214.7570
MEAN_ANOMALY   = 145.2597

EPHEMERIS_TYPE = 0
CLASSIFICATION_TYPE = U
NORAD_CAT_ID   = 28222
ELEMENT_SET_NO = 999
REV_AT_EPOCH   = 19295
BSTAR          = .66836226E-3
MEAN_MOTION_DOT = .47921E-3
MEAN_MOTION_DDOT = 0

CCSDS_OMM_VERS = 2.0
CREATION_DATE  = 
ORIGINATOR     = 

OBJECT_NAME    = CZ-4B R/B
OBJECT_ID      = 2004-035C
CENTER_NAME    = EARTH
REF_FRAME      = TEME
TIME_SYSTEM    = UTC
MEAN_ELEMENT_THEORY = SGP/SGP4

EPOCH          = 2025-12-27T02:30:25.705152
MEAN_MOTION    = 15.27607937
ECCENTRICITY   = .00318671
INCLINATION    = 97.3598
RA_OF_ASC_NODE = 31.2575
ARG_OF_PERICENTER = 224.1058
MEAN_ANOMALY   = 135.7640

EPHEMERIS_TYPE = 0
CLASSIFICATION_TYPE = U
NORAD_CAT_ID   = 28415
ELEMENT_SET_NO = 999
REV_AT_EPOCH   = 16882
BSTAR          = .37972333E-3
MEAN_MOTION_DOT = .10332E-3
MEAN_MOTION_DDOT = 0

CCSDS_OMM_VERS = 2.0
CREATION_DATE  = 
ORIGINATOR     = 

OBJECT_NAME    = CZ-2C R/B
OBJECT_ID      = 2004-046B
CENTER_NAME    = EARTH
REF_FRAME      = TEME
TIME_SYSTEM    = UTC
MEAN_ELEMENT_THEORY = SGP/SGP4

EPOCH          = 2025-12-27T04:38:08.859840
MEAN_MOTION    = 14.26949738
ECCENTRICITY   = .01397757
INCLINATION    = 98.1997
RA_OF_ASC_NODE = 275.6734
ARG_OF_PERICENTER = 9.7750
MEAN_ANOMALY   = 350.6100

EPHEMERIS_TYPE = 0
CLASSIFICATION_TYPE = U
NORAD_CAT_ID   = 28480
ELEMENT_SET_NO = 999
REV_AT_EPOCH   = 9816
BSTAR          = .14480601E-3
MEAN_MOTION_DOT = .349E-5
MEAN_MOTION_DDOT = 0

CCSDS_OMM_VERS = 2.0
CREATION_DATE  = 
ORIGINATOR     = 

OBJECT_NAME    = ARIANE 5 R/B
OBJECT_ID      = 2004-049H
CENTER_NAME    = EARTH
REF_FRAME      = TEME
TIME_SYSTEM    = UTC
MEAN_ELEMENT_THEORY = SGP/SGP4

EPOCH          = 2025-12-27T11:25:35.965344
MEAN_MOTION    = 14.85051254
ECCENTRICITY   = .0083594
INCLINATION    = 98.2531
RA_OF_ASC_NODE = 162.2867
ARG_OF_PERICENTER = 224.6053
MEAN_ANOMALY   = 134.8414

EPHEMERIS_TYPE = 0
CLASSIFICATION_TYPE = U
NORAD_CAT_ID   = 28499
ELEMENT_SET_NO = 999
REV_AT_EPOCH   = 13507
BSTAR          = .17613E-3
MEAN_MOTION_DOT = .1536E-4
MEAN_MOTION_DDOT = 0

CCSDS_OMM_VERS = 2.0
CREATION_DATE  = 
ORIGINATOR     = 

OBJECT_NAME    = CZ-2D R/B
OBJECT_ID      = 2005-024B
CENTER_NAME    = EARTH
REF_FRAME      = TEME
TIME_SYSTEM    = UTC
MEAN_ELEMENT_THEORY = SGP/SGP4

EPOCH          = 2025-12-27T00:29:57.488064
MEAN_MOTION    = 15.54032763
ECCENTRICITY   = .00033166
INCLINATION    = 97.3631
RA_OF_ASC_NODE = 8.8497
ARG_OF_PERICENTER = 303.9804
MEAN_ANOMALY   = 56.1134

EPHEMERIS_TYPE = 0
CLASSIFICATION_TYPE = U
NORAD_CAT_ID   = 28738
ELEMENT_SET_NO = 999
REV_AT_EPOCH   = 12847
BSTAR          = .56968118E-3
MEAN_MOTION_DOT = .36893E-3
MEAN_MOTION_DDOT = 0

